ONEWEB-0668             
1 56711U 23068B   25238.89238215  .00000118  00000+0  27390-3 0  9990
2 56711  87.9019 287.4192 0001931 111.4924 248.6413 13.16591446113053
ONEWEB-0676             
1 56712U 23068C   25238.94861227  .00000106  00000+0  24288-3 0  9992
2 56712  87.9010 287.4287 0002248  89.2646 270.8742 13.16593561112988
ONEWEB-0677             
1 56713U 23068D   25238.79583220 -.00000046  00000+0 -14577-3 0  9995
2 56713  87.9288 333.1081 0002213 100.5046 259.6337 13.20773106110949
ONEWEB-0678             
1 56714U 23068E   25238.66601565  .00000195  00000+0  48296-3 0  9993
2 56714  87.9074 317.9380 0001807  88.4567 271.6770 13.15547821110565
ONEWEB-0679             
1 56715U 23068F   25238.84175238 -.00000027  00000+0 -10406-3 0  9995
2 56715  87.9011 287.4424 0002416 103.0105 257.1296 13.16594154112999
ONEWEB-0680             
1 56716U 23068G   25238.94103076 -.00000205  00000+0 -52690-3 0  9997
2 56716  87.9230 302.6784 0002150 114.6757 245.4601 13.21826050112223
ONEWEB-0681             
1 56717U 23068H   25238.69189489 -.00000047  00000+0 -14646-3 0  9995
2 56717  87.9241 302.7444 0003017  89.3591 270.7889 13.21825597112186
ONEWEB-0682             
1 56718U 23068J   25238.69214925  .00000043  00000+0  79317-4 0  9991
2 56718  87.9055 317.9552 0002135 112.5565 247.5791 13.15547484110730
